{
  "type": "FeatureCollection",
  "features": [
    {
      "type": "Feature",
      "properties": {
        "norad_id": 35476,
        "name": "COSMOS 2251 DEB",
        "group": "cosmos-2251-debris",
        "lat": -72.95717729698319,
        "lon": -10.751643420600425,
        "alt_km": 656.7048586852534,
        "timestamp": "2025-12-13T18:50:04.826676+00:00",
        "meta_object_name": "COSMOS 2251 DEB",
        "meta_object_id": "1993-036ALW",
        "meta_epoch": "2025-12-12T06:03:58.512384",
        "meta_mean_motion": 14.7566701,
        "meta_eccentricity": 0.0017575,
        "meta_inclination": 73.9781,
        "meta_ra_of_asc_node": 61.8707,
        "meta_arg_of_pericenter": 43.3307,
        "meta_mean_anomaly": 17.2447,
        "meta_ephemeris_type": 0,
        "meta_classification_type": "U",
        "meta_norad_cat_id": 35476,
        "meta_element_set_no": 999,
        "meta_rev_at_epoch": 87880,
        "meta_bstar": 0.0026204434,
        "meta_mean_motion_dot": 0.00017965,
        "meta_mean_motion_ddot": 0,
        "tle_line1": "1 35476U 93036ALW 25346.25276056  .00017965  00000+0  26204-2 0  9992",
        "tle_line2": "2 35476  73.9781  61.8707 0017575  43.3307  17.2447 14.75667010878809"
      },
      "geometry": {
        "type": "Point",
        "coordinates": [
          -10.751643420600425,
          -72.95717729698319
        ]
      }
    },
    {
      "type": "Feature",
      "properties": {
        "norad_id": 35580,
        "name": "COSMOS 2251 DEB",
        "group": "cosmos-2251-debris",
        "lat": 27.627654370655936,
        "lon": -174.35909000705342,
        "alt_km": 1131.1997806824866,
        "timestamp": "2025-12-13T18:50:04.826686+00:00",
        "meta_object_name": "COSMOS 2251 DEB",
        "meta_object_id": "1993-036ALX",
        "meta_epoch": "2025-12-10T21:17:20.461632",
        "meta_mean_motion": 13.83850084,
        "meta_eccentricity": 0.0281508,
        "meta_inclination": 73.9016,
        "meta_ra_of_asc_node": 181.8733,
        "meta_arg_of_pericenter": 187.4326,
        "meta_mean_anomaly": 172.2587,
        "meta_ephemeris_type": 0,
        "meta_classification_type": "U",
        "meta_norad_cat_id": 35580,
        "meta_element_set_no": 999,
        "meta_rev_at_epoch": 62231,
        "meta_bstar": 0.0026077,
        "meta_mean_motion_dot": 3.904e-05,
        "meta_mean_motion_ddot": 0,
        "tle_line1": "1 35580U 93036ALX 25344.88704238  .00003904  00000+0  26077-2 0  9999",
        "tle_line2": "2 35580  73.9016 181.8733 0281508 187.4326 172.2587 13.83850084622311"
      },
      "geometry": {
        "type": "Point",
        "coordinates": [
          -174.35909000705342,
          27.627654370655936
        ]
      }
    },
    {
      "type": "Feature",
      "properties": {
        "norad_id": 35583,
        "name": "COSMOS 2251 DEB",
        "group": "cosmos-2251-debris",
        "lat": -16.03270727668165,
        "lon": -154.43252115940433,
        "alt_km": 1139.9339582188231,
        "timestamp": "2025-12-13T18:50:04.826697+00:00",
        "meta_object_name": "COSMOS 2251 DEB",
        "meta_object_id": "1993-036AMA",
        "meta_epoch": "2025-12-12T21:39:43.638624",
        "meta_mean_motion": 13.55335405,
        "meta_eccentricity": 0.03854721,
        "meta_inclination": 73.9165,
        "meta_ra_of_asc_node": 211.7522,
        "meta_arg_of_pericenter": 236.072,
        "meta_mean_anomaly": 120.3183,
        "meta_ephemeris_type": 0,
        "meta_classification_type": "U",
        "meta_norad_cat_id": 35583,
        "meta_element_set_no": 999,
        "meta_rev_at_epoch": 82414,
        "meta_bstar": 0.00094320334,
        "meta_mean_motion_dot": 1.028e-05,
        "meta_mean_motion_ddot": 0,
        "tle_line1": "1 35583U 93036AMA 25346.90258841  .00001028  00000+0  94320-3 0  9993",
        "tle_line2": "2 35583  73.9165 211.7522 0385472 236.0720 120.3183 13.55335405824147"
      },
      "geometry": {
        "type": "Point",
        "coordinates": [
          -154.43252115940433,
          -16.03270727668165
        ]
      }
    },
    {
      "type": "Feature",
      "properties": {
        "norad_id": 35585,
        "name": "COSMOS 2251 DEB",
        "group": "cosmos-2251-debris",
        "lat": 11.392962154402227,
        "lon": -10.010639731433976,
        "alt_km": 1065.9096486172657,
        "timestamp": "2025-12-13T18:50:04.826708+00:00",
        "meta_object_name": "COSMOS 2251 DEB",
        "meta_object_id": "1993-036AMC",
        "meta_epoch": "2025-12-11T11:41:44.780640",
        "meta_mean_motion": 13.75243352,
        "meta_eccentricity": 0.03105022,
        "meta_inclination": 73.9732,
        "meta_ra_of_asc_node": 350.5027,
        "meta_arg_of_pericenter": 263.0041,
        "meta_mean_anomaly": 255.5124,
        "meta_ephemeris_type": 0,
        "meta_classification_type": "U",
        "meta_norad_cat_id": 35585,
        "meta_element_set_no": 999,
        "meta_rev_at_epoch": 64046,
        "meta_bstar": 0.0018464241,
        "meta_mean_motion_dot": 2.49e-05,
        "meta_mean_motion_ddot": 0,
        "tle_line1": "1 35585U 93036AMC 25345.48732385  .00002490  00000+0  18464-2 0  9995",
        "tle_line2": "2 35585  73.9732 350.5027 0310502 263.0041 255.5124 13.75243352640467"
      },
      "geometry": {
        "type": "Point",
        "coordinates": [
          -10.010639731433976,
          11.392962154402227
        ]
      }
    },
    {
      "type": "Feature",
      "properties": {
        "norad_id": 35586,
        "name": "COSMOS 2251 DEB",
        "group": "cosmos-2251-debris",
        "lat": 67.59313260470886,
        "lon": 76.78012339505162,
        "alt_km": 944.272888737376,
        "timestamp": "2025-12-13T18:50:04.826718+00:00",
        "meta_object_name": "COSMOS 2251 DEB",
        "meta_object_id": "1993-036AMD",
        "meta_epoch": "2025-12-09T15:43:44.050080",
        "meta_mean_motion": 13.52082947,
        "meta_eccentricity": 0.0404687,
        "meta_inclination": 74.02,
        "meta_ra_of_asc_node": 307.4172,
        "meta_arg_of_pericenter": 183.4058,
        "meta_mean_anomaly": 354.3417,
        "meta_ephemeris_type": 0,
        "meta_classification_type": "U",
        "meta_norad_cat_id": 35586,
        "meta_element_set_no": 999,
        "meta_rev_at_epoch": 60340,
        "meta_bstar": 0.00055296,
        "meta_mean_motion_dot": 5.88e-06,
        "meta_mean_motion_ddot": 0,
        "tle_line1": "1 35586U 93036AMD 25343.65537095  .00000588  00000+0  55296-3 0  9995",
        "tle_line2": "2 35586  74.0200 307.4172 0404687 183.4058 354.3417 13.52082947603405"
      },
      "geometry": {
        "type": "Point",
        "coordinates": [
          76.78012339505162,
          67.59313260470886
        ]
      }
    },
    {
      "type": "Feature",
      "properties": {
        "norad_id": 35587,
        "name": "COSMOS 2251 DEB",
        "group": "cosmos-2251-debris",
        "lat": 62.52757794013408,
        "lon": 89.87253640616325,
        "alt_km": 721.7900897887002,
        "timestamp": "2025-12-13T18:50:04.826729+00:00",
        "meta_object_name": "COSMOS 2251 DEB",
        "meta_object_id": "1993-036AME",
        "meta_epoch": "2025-12-12T21:18:47.401632",
        "meta_mean_motion": 14.71521652,
        "meta_eccentricity": 0.01026064,
        "meta_inclination": 74.0049,
        "meta_ra_of_asc_node": 58.1365,
        "meta_arg_of_pericenter": 245.7643,
        "meta_mean_anomaly": 113.2781,
        "meta_ephemeris_type": 0,
        "meta_classification_type": "U",
        "meta_norad_cat_id": 35587,
        "meta_element_set_no": 999,
        "meta_rev_at_epoch": 66348,
        "meta_bstar": 0.00043835007,
        "meta_mean_motion_dot": 2.92e-05,
        "meta_mean_motion_ddot": 0,
        "tle_line1": "1 35587U 93036AME 25346.88804863  .00002920  00000+0  43835-3 0  9992",
        "tle_line2": "2 35587  74.0049  58.1365 0102606 245.7643 113.2781 14.71521652663482"
      },
      "geometry": {
        "type": "Point",
        "coordinates": [
          89.87253640616325,
          62.52757794013408
        ]
      }
    },
    {
      "type": "Feature",
      "properties": {
        "norad_id": 35593,
        "name": "COSMOS 2251 DEB",
        "group": "cosmos-2251-debris",
        "lat": 26.55038793567007,
        "lon": -65.23400638703342,
        "alt_km": 810.8718204257511,
        "timestamp": "2025-12-13T18:50:04.826739+00:00",
        "meta_object_name": "COSMOS 2251 DEB",
        "meta_object_id": "1993-036AML",
        "meta_epoch": "2025-12-12T14:04:29.109792",
        "meta_mean_motion": 14.25596217,
        "meta_eccentricity": 0.01052134,
        "meta_inclination": 74.0859,
        "meta_ra_of_asc_node": 288.7258,
        "meta_arg_of_pericenter": 295.277,
        "meta_mean_anomaly": 63.7504,
        "meta_ephemeris_type": 0,
        "meta_classification_type": "U",
        "meta_norad_cat_id": 35593,
        "meta_element_set_no": 999,
        "meta_rev_at_epoch": 85063,
        "meta_bstar": 0.0015351942,
        "meta_mean_motion_dot": 3.828e-05,
        "meta_mean_motion_ddot": 0,
        "tle_line1": "1 35593U 93036AML 25346.58644803  .00003828  00000+0  15352-2 0  9992",
        "tle_line2": "2 35593  74.0859 288.7258 0105213 295.2770  63.7504 14.25596217850633"
      },
      "geometry": {
        "type": "Point",
        "coordinates": [
          -65.23400638703342,
          26.55038793567007
        ]
      }
    }
  ]
}